{"type": "FeatureCollection", "features": [ {"type": "Feature", "properties": {"norad_id": 33905, "name": "COSMOS 2251 DEB", "group": "cosmos-2251-debris", "lat": 25.16916590689473, "lon": 103.55962487527933, "alt_km": 734.596672869654, "timestamp": "2025-12-26T09:30:54.032809+00:00", "meta": {"OBJECT_NAME": "COSMOS 2251 DEB", "OBJECT_ID": "1993-036DJ", "EPOCH": "2025-12-25T21:21:48.164256", "MEAN_MOTION": 14.35428413, "ECCENTRICITY": 0.0058089, "INCLINATION": 73.8868, "RA_OF_ASC_NODE": 292.3034, "ARG_OF_PERICENTER": 178.9773, "MEAN_ANOMALY": 239.5395, "EPHEMERIS_TYPE": 0, "CLASSIFICATION_TYPE": "U", "NORAD_CAT_ID": 33905, "ELEMENT_SET_NO": 999, "REV_AT_EPOCH": 87876, "BSTAR": 0.00053799, "MEAN_MOTION_DOT": 1.548e-05, "MEAN_MOTION_DDOT": 0}, "tle": {"line1": "1 33905U 93036DJ  25359.89014079  .00001548  00000+0  53799-3 0  9996", "line2": "2 33905  73.8868 292.3034 0058089 178.9773 239.5395 14.35428413878764"}}, "geometry": {"type": "Point", "coordinates": [103.55962487527933, 25.16916590689473]}}, {"type": "Feature", "properties": {"norad_id": 33906, "name": "COSMOS 2251 DEB", "group": "cosmos-2251-debris", "lat": 27.931843992169874, "lon": -55.74766392179504, "alt_km": 689.6764083771859, "timestamp": "2025-12-26T09:30:54.032819+00:00", "meta": {"OBJECT_NAME": "COSMOS 2251 DEB", "OBJECT_ID": "1993-036DK", "EPOCH": "2025-12-25T22:07:37.012224", "MEAN_MOTION": 14.57306917, "ECCENTRICITY": 0.0036915, "INCLINATION": 74.0302, "RA_OF_ASC_NODE": 296.4211, "ARG_OF_PERICENTER": 324.0836, "MEAN_ANOMALY": 96.415, "EPHEMERIS_TYPE": 0, "CLASSIFICATION_TYPE": "U", "NORAD_CAT_ID": 33906, "ELEMENT_SET_NO": 999, "REV_AT_EPOCH": 88200, "BSTAR": 0.0018801, "MEAN_MOTION_DOT": 8.57e-05, "MEAN_MOTION_DDOT": 0}, "tle": {"line1": "1 33906U 93036DK  25359.92195616  .00008570  00000+0  18801-2 0  9994", "line2": "2 33906  74.0302 296.4211 0036915 324.0836  96.4150 14.57306917882000"}}, "geometry": {"type": "Point", "coordinates": [-55.74766392179504, 27.931843992169874]}}, {"type": "Feature", "properties": {"norad_id": 33907, "name": "COSMOS 2251 DEB", "group": "cosmos-2251-debris", "lat": 43.36992688975898, "lon": 173.19339722394918, "alt_km": 762.8394536582509, "timestamp": "2025-12-26T09:30:54.032830+00:00", "meta": {"OBJECT_NAME": "COSMOS 2251 DEB", "OBJECT_ID": "1993-036DL", "EPOCH": "2025-12-26T02:26:51.758880", "MEAN_MOTION": 14.3063031, "ECCENTRICITY": 0.0111951, "INCLINATION": 74.0705, "RA_OF_ASC_NODE": 9.38, "ARG_OF_PERICENTER": 60.8464, "MEAN_ANOMALY": 356.2762, "EPHEMERIS_TYPE": 0, "CLASSIFICATION_TYPE": "U", "NORAD_CAT_ID": 33907, "ELEMENT_SET_NO": 999, "REV_AT_EPOCH": 86771, "BSTAR": 0.0019061, "MEAN_MOTION_DOT": 5.31e-05, "MEAN_MOTION_DDOT": 0}, "tle": {"line1": "1 33907U 93036DL  25360.10198795  .00005310  00000+0  19061-2 0  9996", "line2": "2 33907  74.0705   9.3800 0111951  60.8464 356.2762 14.30630310867714"}}, "geometry": {"type": "Point", "coordinates": [173.19339722394918, 43.36992688975898]}}, {"type": "Feature", "properties": {"norad_id": 33908, "name": "COSMOS 2251 DEB", "group": "cosmos-2251-debris", "lat": 69.58048858088613, "lon": -49.63654714493073, "alt_km": 885.2566236980074, "timestamp": "2025-12-26T09:30:54.032840+00:00", "meta": {"OBJECT_NAME": "COSMOS 2251 DEB", "OBJECT_ID": "1993-036DM", "EPOCH": "2025-12-25T14:14:52.263744", "MEAN_MOTION": 14.07447206, "ECCENTRICITY": 0.0222244, "INCLINATION": 73.8371, "RA_OF_ASC_NODE": 182.9563, "ARG_OF_PERICENTER": 204.1101, "MEAN_ANOMALY": 154.9509, "EPHEMERIS_TYPE": 0, "CLASSIFICATION_TYPE": "U", "NORAD_CAT_ID": 33908, "ELEMENT_SET_NO": 999, "REV_AT_EPOCH": 85654, "BSTAR": 0.0026861, "MEAN_MOTION_DOT": 5.642e-05, "MEAN_MOTION_DDOT": 0}, "tle": {"line1": "1 33908U 93036DM  25359.59366046  .00005642  00000+0  26861-2 0  9998", "line2": "2 33908  73.8371 182.9563 0222244 204.1101 154.9509 14.07447206856549"}}, "geometry": {"type": "Point", "coordinates": [-49.63654714493073, 69.58048858088613]}}, {"type": "Feature", "properties": {"norad_id": 33911, "name": "COSMOS 2251 DEB", "group": "cosmos-2251-debris", "lat": -42.731329065204115, "lon": 119.9769108968052, "alt_km": 654.304186453629, "timestamp": "2025-12-26T09:30:54.032852+00:00", "meta": {"OBJECT_NAME": "COSMOS 2251 DEB", "OBJECT_ID": "1993-036DQ", "EPOCH": "2025-12-26T03:27:21.077280", "MEAN_MOTION": 14.75198476, "ECCENTRICITY": 0.001406, "INCLINATION": 74.0905, "RA_OF_ASC_NODE": 135.7458, "ARG_OF_PERICENTER": 66.6606, "MEAN_ANOMALY": 348.4887, "EPHEMERIS_TYPE": 0, "CLASSIFICATION_TYPE": "U", "NORAD_CAT_ID": 33911, "ELEMENT_SET_NO": 999, "REV_AT_EPOCH": 88842, "BSTAR": 0.002158, "MEAN_MOTION_DOT": 0.00014608, "MEAN_MOTION_DDOT": 0}, "tle": {"line1": "1 33911U 93036DQ  25360.14399395  .00014608  00000+0  21580-2 0  9993", "line2": "2 33911  74.0905 135.7458 0014060  66.6606 348.4887 14.75198476888422"}}, "geometry": {"type": "Point", "coordinates": [119.9769108968052, -42.731329065204115]}}, {"type": "Feature", "properties": {"norad_id": 33912, "name": "COSMOS 2251 DEB", "group": "cosmos-2251-debris", "lat": 30.438213532468488, "lon": -25.68680934340392, "alt_km": 717.9465260386596, "timestamp": "2025-12-26T09:30:54.032862+00:00", "meta": {"OBJECT_NAME": "COSMOS 2251 DEB", "OBJECT_ID": "1993-036DR", "EPOCH": "2025-12-25T11:28:32.599776", "MEAN_MOTION": 14.51967051, "ECCENTRICITY": 0.0011296, "INCLINATION": 74.033, "RA_OF_ASC_NODE": 165.7278, "ARG_OF_PERICENTER": 245.0608, "MEAN_ANOMALY": 145.0748, "EPHEMERIS_TYPE": 0, "CLASSIFICATION_TYPE": "U", "NORAD_CAT_ID": 33912, "ELEMENT_SET_NO": 999, "REV_AT_EPOCH": 88618, "BSTAR": 0.00082992, "MEAN_MOTION_DOT": 3.327e-05, "MEAN_MOTION_DDOT": 0}, "tle": {"line1": "1 33912U 93036DR  25359.47815509  .00003327  00000+0  82992-3 0  9999", "line2": "2 33912  74.0330 165.7278 0011296 245.0608 145.0748 14.51967051886186"}}, "geometry": {"type": "Point", "coordinates": [-25.68680934340392, 30.438213532468488]}}, {"type": "Feature", "properties": {"norad_id": 33913, "name": "COSMOS 2251 DEB", "group": "cosmos-2251-debris", "lat": 61.46781486709727, "lon": -170.1659785755902, "alt_km": 757.5768176520533, "timestamp": "2025-12-26T09:30:54.032873+00:00", "meta": {"OBJECT_NAME": "COSMOS 2251 DEB", "OBJECT_ID": "1993-036DS", "EPOCH": "2025-12-25T20:30:08.870112", "MEAN_MOTION": 14.48539545, "ECCENTRICITY": 0.0048173, "INCLINATION": 74.0332, "RA_OF_ASC_NODE": 159.0733, "ARG_OF_PERICENTER": 259.2078, "MEAN_ANOMALY": 220.5321, "EPHEMERIS_TYPE": 0, "CLASSIFICATION_TYPE": "U", "NORAD_CAT_ID": 33913, "ELEMENT_SET_NO": 999, "REV_AT_EPOCH": 88647, "BSTAR": 0.00064836417, "MEAN_MOTION_DOT": 2.443e-05, "MEAN_MOTION_DDOT": 0}, "tle": {"line1": "1 33913U 93036DS  25359.85426933  .00002443  00000+0  64836-3 0  9996", "line2": "2 33913  74.0332 159.0733 0048173 259.2078 220.5321 14.48539545886470"}}, "geometry": {"type": "Point", "coordinates": [-170.1659785755902, 61.46781486709727]}}, {"type": "Feature", "properties": {"norad_id": 33914, "name": "COSMOS 2251 DEB", "group": "cosmos-2251-debris", "lat": -52.463292586664075, "lon": -165.62319203813166, "alt_km": 1174.0080877465398, "timestamp": "2025-12-26T09:30:54.032883+00:00", "meta": {"OBJECT_NAME": "COSMOS 2251 DEB", "OBJECT_ID": "1993-036DT", "EPOCH": "2025-12-26T03:29:35.982240", "MEAN_MOTION": 13.71992842, "ECCENTRICITY": 0.0300775, "INCLINATION": 74.0912, "RA_OF_ASC_NODE": 353.0015, "ARG_OF_PERICENTER": 92.7934, "MEAN_ANOMALY": 341.7967, "EPHEMERIS_TYPE": 0, "CLASSIFICATION_TYPE": "U", "NORAD_CAT_ID": 33914, "ELEMENT_SET_NO": 999, "REV_AT_EPOCH": 84265, "BSTAR": 0.0002703, "MEAN_MOTION_DOT": 3.19e-06, "MEAN_MOTION_DDOT": 0}, "tle": {"line1": "1 33914U 93036DT  25360.14555535  .00000319  00000+0  27030-3 0  9997", "line2": "2 33914  74.0912 353.0015 0300775  92.7934 341.7967 13.71992842842656"}}, "geometry": {"type": "Point", "coordinates": [-165.62319203813166, -52.463292586664075]}}, {"type": "Feature", "properties": {"norad_id": 33915, "name": "COSMOS 2251 DEB", "group": "cosmos-2251-debris", "lat": -34.4464717652122, "lon": -159.6043753894949, "alt_km": 814.8661004835321, "timestamp": "2025-12-26T09:30:54.032893+00:00", "meta": {"OBJECT_NAME": "COSMOS 2251 DEB", "OBJECT_ID": "1993-036DU", "EPOCH": "2025-12-26T02:05:41.135424", "MEAN_MOTION": 14.35111094, "ECCENTRICITY": 0.0103988, "INCLINATION": 74.0429, "RA_OF_ASC_NODE": 9.6442, "ARG_OF_PERICENTER": 98.5899, "MEAN_ANOMALY": 319.6041, "EPHEMERIS_TYPE": 0, "CLASSIFICATION_TYPE": "U", "NORAD_CAT_ID": 33915, "ELEMENT_SET_NO": 999, "REV_AT_EPOCH": 87949, "BSTAR": 0.0003368, "MEAN_MOTION_DOT": 9.96e-06, "MEAN_MOTION_DDOT": 0}, "tle": {"line1": "1 33915U 93036DU  25360.08728166  .00000996  00000+0  33680-3 0  9992", "line2": "2 33915  74.0429   9.6442 0103988  98.5899 319.6041 14.35111094879491"}}, "geometry": {"type": "Point", "coordinates": [-159.6043753894949, -34.4464717652122]}}, {"type": "Feature", "properties": {"norad_id": 33916, "name": "COSMOS 2251 DEB", "group": "cosmos-2251-debris", "lat": -23.257315616919975, "lon": 11.089774997890038, "alt_km": 1211.7787420066616, "timestamp": "2025-12-26T09:30:54.032904+00:00", "meta": {"OBJECT_NAME": "COSMOS 2251 DEB", "OBJECT_ID": "1993-036DV", "EPOCH": "2025-12-26T02:58:10.766208", "MEAN_MOTION": 13.68626751, "ECCENTRICITY": 0.0324727, "INCLINATION": 74.0518, "RA_OF_ASC_NODE": 18.5968, "ARG_OF_PERICENTER": 187.865, "MEAN_ANOMALY": 242.7935, "EPHEMERIS_TYPE": 0, "CLASSIFICATION_TYPE": "U", "NORAD_CAT_ID": 33916, "ELEMENT_SET_NO": 999, "REV_AT_EPOCH": 84074, "BSTAR": 0.00028346, "MEAN_MOTION_DOT": 3.3e-06, "MEAN_MOTION_DDOT": 0}, "tle": {"line1": "1 33916U 93036DV  25360.12373572  .00000330  00000+0  28346-3 0  9990", "line2": "2 33916  74.0518  18.5968 0324727 187.8650 242.7935 13.68626751840746"}}, "geometry": {"type": "Point", "coordinates": [11.089774997890038, -23.257315616919975]}}]}